NORAD_CAT_ID,OBJECT_NAME,OBJECT_TYPE,EPOCH,MEAN_MOTION,ECCENTRICITY,INCLINATION,RA_OF_ASC_NODE,ARG_OF_PERICENTER,MEAN_ANOMALY,BSTAR,MEAN_MOTION_DOT,MEAN_MOTION_DDOT,TLE_LINE0,TLE_LINE1,TLE_LINE2,SEMIMAJOR_AXIS,PERIOD,APOGEE,PERIGEE,DECAYED
51957.0,STARLINK-3694,PAYLOAD,2024-08-09 20:23:43,15.06389971,0.0001603,53.0552,105.4082,98.4757,261.6414,-1.933e-05,-5.69e-06,0.0,0 STARLINK-3694,1 51957U 22025B   24222.84980975 -.00000569  00000-0 -19330-4 0  9992,2 51957  53.0552 105.4082 0001603  98.4757 261.6414 15.06389971135012,6925.379,95.593,548.354,546.134,0.0
51957.0,STARLINK-3694,PAYLOAD,2024-08-09 21:59:15,15.06392552,0.0001583,53.0545,105.1103,95.2463,264.8707,2.0052e-06,-2.52e-06,0.0,0 STARLINK-3694,1 51957U 22025B   24222.91615557 -.00000252  00000-0  20052-5 0  9993,2 51957  53.0545 105.1103 0001583  95.2463 264.8707 15.06392552133917,6925.371,95.593,548.333,546.14,0.0
51957.0,STARLINK-3694,PAYLOAD,2024-08-10 01:10:20,15.06405583,0.0001506,53.0544,104.5074,93.7826,266.3335,0.00024671,3.396e-05,0.0,0 STARLINK-3694,1 51957U 22025B   24223.04884262  .00003396  00000-0  24671-3 0  9999,2 51957  53.0544 104.5074 0001506  93.7826 266.3335 15.06405583135046,6925.331,95.592,548.239,546.153,0.0
51957.0,STARLINK-3694,PAYLOAD,2024-08-10 20:16:49,15.06379682,0.0002312,53.054,100.9331,130.2558,229.8634,-0.00024302,-3.898e-05,0.0,0 STARLINK-3694,1 51957U 22025B   24223.84502102 -.00003898  00000-0 -24302-3 0  9997,2 51957  53.0540 100.9331 0002312 130.2558 229.8634 15.06379682135162,6925.411,95.593,548.877,545.675,0.0
51957.0,STARLINK-3694,PAYLOAD,2024-08-10 21:52:22,15.06377121,0.0001557,53.054,100.6382,96.9126,263.204,-0.00020564,-3.341e-05,0.0,0 STARLINK-3694,1 51957U 22025B   24223.91137275 -.00003341  00000-0 -20564-3 0  9999,2 51957  53.0540 100.6382 0001557  96.9126 263.2040 15.06377121134061,6925.419,95.594,548.362,546.205,0.0
51957.0,STARLINK-3694,PAYLOAD,2024-08-11 21:45:28,15.06413673,0.0001538,53.0545,96.1747,81.661,278.4553,0.0011029,0.0001619,0.0,0 STARLINK-3694,1 51957U 22025B   24224.90657921  .00016190  00000-0  11029-2 0  9993,2 51957  53.0545  96.1747 0001538  81.6610 278.4553 15.06413673135328,6925.307,95.591,548.237,546.107,0.0
51957.0,STARLINK-3694,PAYLOAD,2024-08-12 15:16:23,15.06432853,0.0001659,53.0545,92.894,102.6315,257.486,0.00099522,0.00014586,0.0,0 STARLINK-3694,1 51957U 22025B   24225.63638390  .00014586  00000-0  99522-3 0  9995,2 51957  53.0545  92.8940 0001659 102.6315 257.4860 15.06432853134324,6925.248,95.59,548.262,545.964,0.0
51957.0,STARLINK-3694,PAYLOAD,2024-08-12 21:38:32,15.06458627,0.0001933,53.0535,91.7083,84.3927,275.7282,0.0015243,0.00022532,0.0,0 STARLINK-3694,1 51957U 22025B   24225.90176050  .00022532  00000-0  15243-2 0  9992,2 51957  53.0535  91.7083 0001933  84.3927 275.7282 15.06458627134361,6925.169,95.588,548.373,545.695,0.0
51957.0,STARLINK-3694,PAYLOAD,2024-08-12 23:14:03,15.06475818,0.0001476,53.0539,91.404,116.446,243.6681,0.0017237,0.00025539,0.0,0 STARLINK-3694,1 51957U 22025B   24225.96809764  .00025539  00000-0  17237-2 0  9998,2 51957  53.0539  91.4040 0001476 116.4460 243.6681 15.06475818135488,6925.116,95.587,548.003,545.959,0.0
51957.0,STARLINK-3694,PAYLOAD,2024-08-13 15:09:29,15.06353707,0.0002156,53.0543,88.4274,120.6964,239.4238,-0.0014409,-0.00021653,0.0,0 STARLINK-3694,1 51957U 22025B   24226.63159690 -.00021653  00000-0 -14409-2 0  9992,2 51957  53.0543  88.4274 0002156 120.6964 239.4238 15.06353707134471,6925.49,95.595,548.849,545.862,0.0
51957.0,STARLINK-3694,PAYLOAD,2024-08-13 21:31:40,15.06373055,7.17e-05,53.0542,87.2368,17.5412,342.5601,0.00044447,6.34e-05,0.0,0 STARLINK-3694,1 51957U 22025B   24226.89699376  .00006340  00000-0  44447-3 0  9990,2 51957  53.0542  87.2368 0000717  17.5412 342.5601 15.06373055135620,6925.431,95.594,547.793,546.8,0.0
51957.0,STARLINK-3694,PAYLOAD,2024-08-14 00:42:45,15.06379227,0.0002111,53.053,86.6428,80.5485,279.5743,0.00059888,8.645e-05,0.0,0 STARLINK-3694,1 51957U 22025B   24227.02968877  .00008645  00000-0  59888-3 0  9996,2 51957  53.0530  86.6428 0002111  80.5485 279.5743 15.06379227135642,6925.412,95.593,548.739,545.815,0.0
51957.0,STARLINK-3694,PAYLOAD,2024-08-14 18:13:40,15.06411013,0.0001652,53.0516,83.3646,78.1016,282.0158,0.00093369,0.00013657,0.0,0 STARLINK-3694,1 51957U 22025B   24227.75949992  .00013657  00000-0  93369-3 0  9994,2 51957  53.0516  83.3646 0001652  78.1016 282.0158 15.06411013135755,6925.315,95.591,548.324,546.036,0.0
51957.0,STARLINK-3694,PAYLOAD,2024-08-14 21:24:45,15.06415265,0.000154,53.0539,82.7684,74.262,285.8539,0.00089414,0.00013067,0.0,0 STARLINK-3694,1 51957U 22025B   24227.89219194  .00013067  00000-0  89414-3 0  9994,2 51957  53.0539  82.7684 0001540  74.2620 285.8539 15.06415265134665,6925.302,95.591,548.233,546.1,0.0
51957.0,STARLINK-3694,PAYLOAD,2024-08-15 06:57:59,15.06405212,0.0001863,53.0548,80.9821,79.5783,280.5416,0.00018274,2.442e-05,0.0,0 STARLINK-3694,1 51957U 22025B   24228.29027429  .00002442  00000-0  18274-3 0  9998,2 51957  53.0548  80.9821 0001863  79.5783 280.5416 15.06405212134728,6925.333,95.592,548.488,545.907,0.0
51957.0,STARLINK-3694,PAYLOAD,2024-08-15 21:17:51,15.06388869,0.0001566,53.0546,78.3012,75.0785,285.0377,0.00010548,1.289e-05,0.0,0 STARLINK-3694,1 51957U 22025B   24228.88740191  .00001289  00000-0  10548-3 0  9995,2 51957  53.0546  78.3012 0001566  75.0785 285.0377 15.06388869135929,6925.383,95.593,548.332,546.163,0.0
51957.0,STARLINK-3694,PAYLOAD,2024-08-16 21:10:55,15.06443173,0.0002026,53.0552,73.829,59.2649,300.854,0.0016698,0.00024707,0.0,0 STARLINK-3694,1 51957U 22025B   24229.88259133  .00024707  00000-0  16698-2 0  9998,2 51957  53.0552  73.8290 0002026  59.2649 300.8540 15.06443173136074,6925.216,95.589,548.484,545.678,0.0
51957.0,STARLINK-3694,PAYLOAD,2024-08-16 22:46:27,15.06451471,0.000159,53.0555,73.5353,68.6636,291.4523,0.001899,0.00028157,0.0,0 STARLINK-3694,1 51957U 22025B   24229.94893503  .00028157  00000-0  18990-2 0  9990,2 51957  53.0555  73.5353 0001590  68.6636 291.4523 15.06451471134972,6925.191,95.589,548.157,545.955,0.0
51957.0,STARLINK-3694,PAYLOAD,2024-08-17 22:39:33,15.06420721,0.0001337,53.0551,69.0701,81.0745,279.0395,0.0016523,0.00024429,0.0,0 STARLINK-3694,1 51957U 22025B   24230.94413425  .00024429  00000-0  16523-2 0  9991,2 51957  53.0551  69.0701 0001337  81.0745 279.0395 15.06420721136238,6925.285,95.591,548.076,546.224,0.0
51957.0,STARLINK-3694,PAYLOAD,2024-08-18 05:01:42,15.06401932,0.000147,53.0537,67.876,82.8288,277.2868,0.0013634,0.00020086,0.0,0 STARLINK-3694,1 51957U 22025B   24231.20952159  .00020086  00000-0  13634-2 0  9998,2 51957  53.0537  67.8760 0001470  82.8288 277.2868 15.06401932135161,6925.343,95.592,548.226,546.19,0.0
51957.0,STARLINK-3694,PAYLOAD,2024-08-18 12:59:24,15.06409831,0.0002019,53.0509,66.3916,69.1121,291.0084,0.0010407,0.00015258,0.0,0 STARLINK-3694,1 51957U 22025B   24231.54125675  .00015258  00000-0  10407-2 0  9990,2 51957  53.0509  66.3916 0002019  69.1121 291.0084 15.06409831136320,6925.318,95.592,548.582,545.785,0.0
51957.0,STARLINK-3694,PAYLOAD,2024-08-18 19:21:33,15.06405289,0.0001527,53.0529,65.1976,77.7698,282.3462,0.00026983,3.74e-05,0.0,0 STARLINK-3694,1 51957U 22025B   24231.80664215  .00003740  00000-0  26983-3 0  9997,2 51957  53.0529  65.1976 0001527  77.7698 282.3462 15.06405289135259,6925.332,95.592,548.255,546.14,0.0
51957.0,STARLINK-3694,PAYLOAD,2024-08-19 06:30:20,15.06404365,0.0001443,53.053,63.1127,78.6903,281.4248,0.0001811,2.417e-05,0.0,0 STARLINK-3694,1 51957U 22025B   24232.27106875  .00002417  00000-0  18110-3 0  9995,2 51957  53.0530  63.1127 0001443  78.6903 281.4248 15.06404365135327,6925.335,95.592,548.2,546.201,0.0
51957.0,STARLINK-3694,PAYLOAD,2024-08-19 22:25:44,15.06395854,0.000144,53.053,60.1334,92.7918,267.3236,4.0874e-05,3.27e-06,0.0,0 STARLINK-3694,1 51957U 22025B   24232.93454056  .00000327  00000-0  40874-4 0  9996,2 51957  53.0530  60.1334 0001440  92.7918 267.3236 15.06395854136530,6925.361,95.592,548.224,546.229,0.0
51957.0,STARLINK-3694,PAYLOAD,2024-08-20 12:45:35,15.06398471,0.0001424,53.0533,57.4525,94.2186,265.8966,7.997e-05,9.1e-06,0.0,0 STARLINK-3694,1 51957U 22025B   24233.53166181  .00000910  00000-0  79970-4 0  9999,2 51957  53.0533  57.4525 0001424  94.2186 265.8966 15.06398471135518,6925.353,95.592,548.204,546.232,0.0
51957.0,STARLINK-3694,PAYLOAD,2024-08-20 20:43:17,15.06403758,0.0001438,53.0542,55.9627,97.9546,262.1607,0.00012819,1.629e-05,0.0,0 STARLINK-3694,1 51957U 22025B   24233.86339242  .00001629  00000-0  12819-3 0  9991,2 51957  53.0542  55.9627 0001438  97.9546 262.1607 15.06403758136674,6925.337,95.592,548.198,546.206,0.0
51957.0,STARLINK-3694,PAYLOAD,2024-08-21 17:25:16,15.0642193,0.0001412,53.0552,52.0878,87.6595,272.4555,0.00047548,6.812e-05,0.0,0 STARLINK-3694,1 51957U 22025B   24234.72589108  .00006812  00000-0  47548-3 0  9991,2 51957  53.0552  52.0878 0001412  87.6595 272.4555 15.06421930136806,6925.281,95.591,548.124,546.168,0.0
